BEESAT-4                
1 41619U 16040W   22225.66678069  .00011217  00000+0  36010-3 0  9997
2 41619  97.2120 274.8064 0007330 269.4960  90.5443 15.32439681329487
CAS-2T & KS-1Q          
1 41847U 16066G   22225.79229389  .00000561  00000+0  93240-4 0  9998
2 41847  98.5475 290.3891 0364127  38.5245 324.1338 14.38687802302596
NAYIF-1 (EO-88)         
1 42017U 17008BX  22225.71952796  .00014037  00000+0  39993-3 0  9999
2 42017  97.2650 291.0525 0005697  56.0960 304.0826 15.36180907305867
ZHUHAI-1 02 (CAS-4B)    
1 42759U 17034B   22225.86124834  .00003370  00000+0  20412-3 0  9995
2 42759  43.0176  16.1851 0010733 292.0195 223.4907 15.12240403285042
ZHUHAI-1 01 (CAS-4A)    
1 42761U 17034D   22225.81900787  .00003507  00000+0  21137-3 0  9999
2 42761  43.0193  15.1635 0011031 292.8212 175.5245 15.12328156285047
MAX VALIER SAT          
1 42778U 17036P   22225.90967726  .00006431  00000+0  23922-3 0  9998
2 42778  97.2008 265.0532 0012487 118.5545 241.6953 15.27764571285673
RADFXSAT (FOX-1B)       
1 43017U 17073E   22225.64370044  .00004342  00000+0  32667-3 0  9993
2 43017  97.6675 117.4884 0247570   0.9265 359.2357 14.81777306255580
FOX-1D (AO-92)          
1 43137U 18004AC  22225.78541403  .00007701  00000+0  26515-3 0  9992
2 43137  97.3661 300.4534 0008453 149.1838 210.9900 15.30291316255111
DIWATA-2B               
1 43678U 18084H   22225.91635564  .00000326  00000+0  37735-4 0  9990
2 43678  97.9779 359.8813 0011238  94.3873 265.8642 14.92247268206426
ES'HAIL 2               
1 43700U 18090A   22225.59771678  .00000125  00000+0  00000+0 0  9991
2 43700   0.0246 117.2249 0001979  65.3524  20.3808  1.00268916 13609
FOX-1CLIFF (AO-95)      
1 43770U 18099N   22225.75722006  .00001177  00000+0  10790-3 0  9995
2 43770  97.6175 290.6173 0015584  84.3049 275.9949 14.96664309201586
ITASAT 1                
1 43786U 18099AE  22225.81237120  .00001825  00000+0  16410-3 0  9992
2 43786  97.6206 291.6197 0016512  77.8386 282.4684 14.96781561201633
JY1SAT (JO-97)          
1 43803U 18099AX  22225.74341026  .00002468  00000+0  21708-3 0  9995
2 43803  97.6171 291.3249 0016507  77.4565 282.8502 14.97329678201640
UWE-4                   
1 43880U 18111E   22225.70169095  .00002236  00000+0  19194-3 0  9994
2 43880  97.6644 131.0106 0013472 121.3117 238.9426 14.98415916198275
NEXUS (FO-99)           
1 43937U 19003F   22225.54392948  .00009712  00000+0  31643-3 0  9994
2 43937  97.1266 256.7072 0018168 312.9147  47.0569 15.31864073198714
PSAT2 (NO-104)          
1 44354U 19036R   22225.07007537  .00046821 -60471-5  37416-3 0  9990
2 44354  28.5251 144.1570 0211747 251.8310 105.9130 15.45071955173438
JAISAT-1                
1 44419U 19038F   22225.86265383  .00006908  00000+0  34119-3 0  9990
2 44419  97.6398 196.4905 0017076 295.4249  64.5217 15.18075174171762
DUCHIFAT-3              
1 44854U 19089C   22225.83967916  .00003105  00000+0  24210-3 0  9994
2 44854  36.9666 120.0575 0009419 322.2319  37.7750 15.01382837146567
CAS-6 (TIANQIN 1)       
1 44881U 19093C   22225.77533037  .00000421  00000+0  60016-4 0  9998
2 44881  97.8912 304.1595 0015198   5.2880 354.8494 14.81782366143266
RS-44 & BREEZE-KM R/B   
1 44909U 19096E   22225.88948724  .00000010  00000+0 -74453-5 0  9993
2 44909  82.5222 192.1182 0217177 185.1454 174.7416 12.79714304122852
ORBITAL FACTORY 2 (OF-2)
1 45113U 19071C   22225.16267791  .00023313  00000+0  44607-3 0  9999
2 45113  51.6377 139.8168 0009392  29.5483 330.6034 15.47909814142155
HUSKYSAT-1 (HO-107)     
1 45119U 19071J   22225.91854009  .00021143  00000+0  42271-3 0  9996
2 45119  51.6375 136.5848 0009170  28.3814 331.7672 15.46702013142259
BY70-2                  
1 45857U 20042B   22225.82167414  .00005167  00000+0  68290-3 0  9999
2 45857  97.9538 302.1336 0008666 292.2281  67.8045 14.80392177113942
SALSAT                  
1 46495U 20068K   22225.82208674  .00001312  00000+0  97353-4 0  9991
2 46495  97.7316 167.1547 0018472  84.0713 276.2618 15.04708775102817
BY70-3                  
1 46839U 20079N   22225.90184019  .00022339  00000+0  48876-3 0  9997
2 46839  97.1955 297.3177 0006766 119.0577 357.4222 15.44127793 99106
RADFXSAT-2 (AO-109)     
1 47311U 21002C   22225.87811315  .00007393  00000+0  29275-3 0  9997
2 47311  60.6853 145.9532 0026725  19.3736 340.8362 15.26046127 87225
UVSQ-SAT                
1 47438U 21006AB  22225.70559701  .00005181  00000+0  27077-3 0  9992
2 47438  97.4331 283.5484 0013350  79.2851 280.9884 15.16240830 85959
DIY-1 (ARDUIQUBE)       
1 47963U 21022AH  22225.70579158  .00012424  00000+0  66770-3 0  9992
2 47963  97.5260 126.4442 0014342 299.5107  60.4694 15.14948023 75615
XW-3 (CAS-9)            
1 50466U 21131B   22225.90399098  .00000073  00000+0  38615-4 0  9995
2 50466  98.5788 303.1264 0003997 353.9634   6.1504 14.38514613 33174
TEVEL-3                 
1 50988U 22002E   22225.90375999  .00006278  00000+0  33910-3 0  9991
2 50988  97.4779 291.9410 0008544 216.4543 230.1788 15.15035732 32115
TEVEL-8                 
1 50989U 22002F   22225.91073845  .00006311  00000+0  34137-3 0  9998
2 50989  97.4800 291.9716 0008677 214.2618 231.7960 15.14983118 32114
TEVEL-5                 
1 50998U 22002Q   22225.90627468  .00006460  00000+0  34393-3 0  9992
2 50998  97.4776 292.0680 0010204 212.2218 234.2304 15.15524601 32121
TEVEL-6                 
1 50999U 22002R   22225.90577171  .00006467  00000+0  34423-3 0  9999
2 50999  97.4781 292.0670 0010231 211.4929 234.9870 15.15529016 32127
TEVEL-1                 
1 51013U 22002AF  22225.90684285  .00006321  00000+0  34164-3 0  9993
2 51013  97.4785 291.9223 0008487 215.6973 230.6376 15.15010524 32118
TEVEL-7                 
1 51062U 22002CG  22225.91238145  .00006327  00000+0  34229-3 0  9996
2 51062  97.4795 291.9586 0008599 213.9962 231.9882 15.14974467 32118
TEVEL-4                 
1 51063U 22002CH  22225.91313574  .00006298  00000+0  34086-3 0  9995
2 51063  97.4803 291.9564 0008559 214.4687 231.3621 15.14965196 32115
TEVEL-2                 
1 51069U 22002CP  22225.89934940  .00006336  00000+0  34224-3 0  9991
2 51069  97.4776 291.9218 0008507 216.4899 199.0920 15.15028505 32113
RS3S                    
1 53308U 98067TT  22225.87739414  .00035597  00000+0  59504-3 0  9999
2 53308  51.6412  50.6807 0002924 114.4915 245.6379 15.51559999  3678
RS1S                    
1 53309U 98067TU  22225.87691826  .00036277  00000+0  60518-3 0  9997
2 53309  51.6411  50.6767 0003567 128.6258 231.5051 15.51606055  3626
RS5S                    
1 53310U 98067TV  22225.81251634  .00034866  00000+0  58283-3 0  9990
2 53310  51.6416  50.9975 0003261 129.2191 230.9088 15.51568617  3647
RS6S                    
1 53311U 98067TW  22225.87591580  .00038729  00000+0  64302-3 0  9995
2 53311  51.6409  50.6701 0002649 108.2173 251.9105 15.51710273  3673
RS9S                    
1 53312U 98067TX  22225.87613670  .00036521  00000+0  60806-3 0  9994
2 53312  51.6413  50.6715 0003762 130.8242 229.3074 15.51656946  3613
RS12S                   
1 53313U 98067TY  22225.87550774  .00037464  00000+0  62235-3 0  9995
2 53313  51.6413  50.6679 0003279 135.8082 224.3170 15.51709846  3668
RS4S                    
1 53321U 98067TZ  22225.87780343  .00036300  00000+0  60692-3 0  9994
2 53321  51.6417  50.6844 0003069 120.9273 239.2019 15.51544030  3668
RS29S (SXC3-2110 CYCLO*)
1 53373U 22096D   22225.91041979  .00007117  00000+0  29276-3 0  9997
2 53373  97.4379 127.3453 0002747 123.1808 299.5310 15.24455119   703
RS32S (SXC3-212 MONITO*)
1 53374U 22096E   22225.90992775  .00007133  00000+0  29249-3 0  9994
2 53374  97.4391 127.3472 0002971 117.9479 303.7784 15.24558338   703
RS34S (SXC3-218 KUZBAS*)
1 53375U 22096F   22225.90959116  .00006648  00000+0  27261-3 0  9999
2 53375  97.4382 127.3445 0003206 120.7932 299.5618 15.24584584   702
RS23S (SXC3-21 UTMN)    
1 53376U 22096G   22225.84507868  .00006556  00000+0  26861-3 0  9999
2 53376  97.4379 127.2806 0003156 121.6285 305.3921 15.24614712   692
RS28S (SXC3-214 MIET-A*)
1 53377U 22096H   22225.78235751  .00006098  00000+0  24986-3 0  9999
2 53377  97.4384 127.2185 0003185 117.4465 326.0801 15.24645262   684
RS26S (KAI-1)           
1 53378U 22096J   22225.90884216  .00005832  00000+0  23877-3 0  9993
2 53378  97.4377 127.3441 0003275 112.1006 305.9369 15.24688567   709
RS19S (SXC3-219 ISOI)   
1 53381U 22096M   22225.78186997  .00006585  00000+0  26599-3 0  9994
2 53381  97.4376 127.2205 0006097  81.5413   6.4167 15.25085398   685
RS21S (CUBESX-HSE-2)    
1 53383U 22096P   22225.78097644  .00006288  00000+0  25365-3 0  9996
2 53383  97.4382 127.2203 0006420  79.4016   4.6720 15.25147179   688
RS30S (SXC3-217 SIREN)  
1 53384U 22096Q   22225.78101047  .00005885  00000+0  23741-3 0  9998
2 53384  97.4380 127.2220 0006429  78.2152   6.4717 15.25171628   685
RS20S (GEOSCAN-EDELVEIS)
1 53385U 22096R   22225.83911176  .00007153  00000+0  28666-3 0  9998
2 53385  97.4379 127.2803 0006940  79.7386 325.9688 15.25313587   727
RS33S (SXC3-215 VIZARD) 
1 53386U 22096S   22225.78001353  .00009506  00000+0  37747-3 0  9994
2 53386  97.4376 127.2235 0007707  79.2670   5.3283 15.25521203   701
